NORAD_CAT_ID,OBJECT_NAME,OBJECT_TYPE,EPOCH,MEAN_MOTION,ECCENTRICITY,INCLINATION,RA_OF_ASC_NODE,ARG_OF_PERICENTER,MEAN_ANOMALY,BSTAR,MEAN_MOTION_DOT,MEAN_MOTION_DDOT,TLE_LINE0,TLE_LINE1,TLE_LINE2,SEMIMAJOR_AXIS,PERIOD,APOGEE,PERIGEE,DECAYED
52263.0,STARLINK-3786,PAYLOAD,2023-12-17 14:50:57,15.0884445,0.0001519,53.2167,159.1395,101.9607,258.1555,1.6985e-05,-1.8e-07,0.0,0 STARLINK-3786,1 52263U 22041C   23351.61872574 -.00000018  00000-0  16985-4 0  9994,2 52263  53.2167 159.1395 0001519 101.9607 258.1555 15.08844450 91614,6917.867,95.437,540.783,538.681,0.0
52263.0,STARLINK-3786,PAYLOAD,2023-12-17 18:01:44,15.08844973,0.0001503,53.2168,158.5442,99.3113,260.8049,1.4976e-05,-5e-07,0.0,0 STARLINK-3786,1 52263U 22041C   23351.75120474 -.00000050  00000-0  14976-4 0  9998,2 52263  53.2168 158.5442 0001503  99.3113 260.8049 15.08844973 92840,6917.865,95.437,540.77,538.69,0.0
52263.0,STARLINK-3786,PAYLOAD,2023-12-18 14:41:44,15.08841834,0.0001594,53.2173,154.6789,107.5788,252.5379,3.5865e-05,2.83e-06,0.0,0 STARLINK-3786,1 52263U 22041C   23352.61232371  .00000283  00000-0  35865-4 0  9991,2 52263  53.2173 154.6789 0001594 107.5788 252.5379 15.08841834 91764,6917.875,95.437,540.842,538.637,0.0
52263.0,STARLINK-3786,PAYLOAD,2023-12-18 17:52:31,15.08841861,0.0001524,53.2172,154.0825,103.6663,256.4499,3.1127e-05,2.07e-06,0.0,0 STARLINK-3786,1 52263U 22041C   23352.74480343  .00000207  00000-0  31127-4 0  9992,2 52263  53.2172 154.0825 0001524 103.6663 256.4499 15.08841861 91788,6917.875,95.437,540.794,538.685,0.0
52263.0,STARLINK-3786,PAYLOAD,2023-12-19 14:32:32,15.08837337,0.0001565,53.2175,150.219,111.5697,248.5462,2.7613e-05,1.51e-06,0.0,0 STARLINK-3786,1 52263U 22041C   23353.60592699  .00000151  00000-0  27613-4 0  9999,2 52263  53.2175 150.2190 0001565 111.5697 248.5462 15.08837337 91914,6917.889,95.438,540.836,538.671,0.0
52263.0,STARLINK-3786,PAYLOAD,2023-12-19 17:43:18,15.08812641,0.0001563,53.2172,149.6224,104.4441,255.6725,0.00036479,5.518e-05,0.0,0 STARLINK-3786,1 52263U 22041C   23353.73841163  .00005518  00000-0  36479-3 0  9997,2 52263  53.2172 149.6224 0001563 104.4441 255.6725 15.08812641 93146,6917.964,95.439,540.91,538.748,0.0
52263.0,STARLINK-3786,PAYLOAD,2023-12-20 17:34:05,15.08837868,0.0001318,53.2176,145.1631,83.7448,276.3694,6.5425e-06,-1.84e-06,0.0,0 STARLINK-3786,1 52263U 22041C   23354.73201098 -.00000184  00000-0  65425-5 0  9995,2 52263  53.2176 145.1631 0001318  83.7448 276.3694 15.08837868 93296,6917.887,95.438,540.664,538.84,0.0
52263.0,STARLINK-3786,PAYLOAD,2023-12-21 14:14:06,15.08816973,0.0001479,53.2177,141.2998,95.2301,264.886,0.00032134,4.827e-05,0.0,0 STARLINK-3786,1 52263U 22041C   23355.59313605  .00004827  00000-0  32134-3 0  9994,2 52263  53.2177 141.2998 0001479  95.2301 264.8860 15.08816973 92216,6917.951,95.439,540.839,538.793,0.0
52263.0,STARLINK-3786,PAYLOAD,2023-12-21 15:49:29,15.08839253,0.0001375,53.2173,141.0035,70.0912,290.0228,6.4859e-05,7.44e-06,0.0,0 STARLINK-3786,1 52263U 22041C   23355.65937298  .00000744  00000-0  64859-4 0  9995,2 52263  53.2173 141.0035 0001375  70.0912 290.0228 15.08839253 92222,6917.883,95.438,540.699,538.796,0.0
52263.0,STARLINK-3786,PAYLOAD,2023-12-22 14:04:54,15.08838295,0.000177,53.2183,136.8392,60.5856,299.5313,8.8992e-05,1.128e-05,0.0,0 STARLINK-3786,1 52263U 22041C   23356.58673634  .00001128  00000-0  88992-4 0  9990,2 52263  53.2183 136.8392 0001770  60.5856 299.5313 15.08838295 92360,6917.886,95.438,540.975,538.526,0.0
52263.0,STARLINK-3786,PAYLOAD,2023-12-22 17:15:40,15.08838808,0.0001679,53.218,136.2478,61.9243,298.1919,9.0482e-05,1.152e-05,0.0,0 STARLINK-3786,1 52263U 22041C   23356.71921626  .00001152  00000-0  90482-4 0  9996,2 52263  53.2180 136.2478 0001679  61.9243 298.1919 15.08838808 93592,6917.884,95.438,540.911,538.588,0.0
52263.0,STARLINK-3786,PAYLOAD,2023-12-23 13:55:40,15.08844725,0.0001637,53.2179,132.3809,65.3122,294.804,7.6996e-05,9.38e-06,0.0,0 STARLINK-3786,1 52263U 22041C   23357.58033272  .00000938  00000-0  76996-4 0  9998,2 52263  53.2179 132.3809 0001637  65.3122 294.8040 15.08844725 92517,6917.866,95.437,540.863,538.598,0.0
52263.0,STARLINK-3786,PAYLOAD,2023-12-23 18:41:49,15.08851252,0.00018,53.2192,131.4753,61.5116,298.6057,9.3548e-05,1.201e-05,0.0,0 STARLINK-3786,1 52263U 22041C   23357.77904683  .00001201  00000-0  93548-4 0  9998,2 52263  53.2192 131.4753 0001800  61.5116 298.6057 15.08851252 93753,6917.846,95.437,540.956,538.466,0.0
52263.0,STARLINK-3786,PAYLOAD,2023-12-24 12:11:04,15.08846199,0.0001657,53.22,128.2034,111.6521,248.4648,2.0287e-05,3.5e-07,0.0,0 STARLINK-3786,1 52263U 22041C   23358.50768857  .00000035  00000-0  20287-4 0  9995,2 52263  53.2200 128.2034 0001657 111.6521 248.4648 15.08846199 93861,6917.861,95.437,540.873,538.58,0.0
52263.0,STARLINK-3786,PAYLOAD,2023-12-24 13:46:28,15.08839959,0.0001745,53.2185,127.9208,61.3141,298.8026,4.7483e-05,4.68e-06,0.0,0 STARLINK-3786,1 52263U 22041C   23358.57393542  .00000468  00000-0  47483-4 0  9994,2 52263  53.2185 127.9208 0001745  61.3141 298.8026 15.08839959 92661,6917.881,95.438,540.953,538.538,0.0
52263.0,STARLINK-3786,PAYLOAD,2023-12-24 18:32:36,15.08845237,0.0001588,53.2186,127.0198,72.8062,287.3104,7.9968e-05,9.85e-06,0.0,0 STARLINK-3786,1 52263U 22041C   23358.77264930  .00000985  00000-0  79968-4 0  9991,2 52263  53.2186 127.0198 0001588  72.8062 287.3104 15.08845237 92694,6917.864,95.437,540.828,538.631,0.0
52263.0,STARLINK-3786,PAYLOAD,2023-12-25 13:37:14,15.08846228,0.000143,53.2175,123.4548,99.6324,260.4829,-1.7037e-05,-5.59e-06,0.0,0 STARLINK-3786,1 52263U 22041C   23359.56753018 -.00000559  00000-0 -17037-4 0  9997,2 52263  53.2175 123.4548 0001430  99.6324 260.4829 15.08846228 92816,6917.861,95.437,540.716,538.737,0.0
52263.0,STARLINK-3786,PAYLOAD,2023-12-25 15:12:37,15.08844548,0.0001781,53.2175,123.1565,85.6728,274.4468,1.8035e-05,-1e-08,0.0,0 STARLINK-3786,1 52263U 22041C   23359.63377169 -.00000001  00000-0  18035-4 0  9994,2 52263  53.2175 123.1565 0001781  85.6728 274.4468 15.08844548 94037,6917.866,95.437,540.964,538.499,0.0
52263.0,STARLINK-3786,PAYLOAD,2023-12-26 11:52:39,15.08836831,0.0001587,53.2182,119.295,98.3884,261.7289,-1.3302e-05,-5e-06,0.0,0 STARLINK-3786,1 52263U 22041C   23360.49489953 -.00000500  00000-0 -13302-4 0  9992,2 52263  53.2182 119.2950 0001587  98.3884 261.7289 15.08836831 94167,6917.89,95.438,540.853,538.657,0.0
52263.0,STARLINK-3786,PAYLOAD,2023-12-26 13:28:02,15.08837237,0.0001589,53.2183,118.9978,98.0834,262.0339,-1.0623e-05,-4.57e-06,0.0,0 STARLINK-3786,1 52263U 22041C   23360.56113916 -.00000457  00000-0 -10623-4 0  9997,2 52263  53.2183 118.9978 0001589  98.0834 262.0339 15.08837237 92965,6917.889,95.438,540.853,538.655,0.0
52263.0,STARLINK-3786,PAYLOAD,2023-12-27 13:18:49,15.08841346,0.0001655,53.2186,114.5385,101.6494,258.4684,0.00012069,1.633e-05,0.0,0 STARLINK-3786,1 52263U 22041C   23361.55473654  .00001633  00000-0  12069-3 0  9995,2 52263  53.2186 114.5385 0001655 101.6494 258.4684 15.08841346 93115,6917.876,95.437,540.886,538.596,0.0
52263.0,STARLINK-3786,PAYLOAD,2023-12-28 11:34:13,15.0883773,0.00016,53.2184,110.3721,96.8703,263.2471,0.00010218,1.338e-05,0.0,0 STARLINK-3786,1 52263U 22041C   23362.48210142  .00001338  00000-0  10218-3 0  9995,2 52263  53.2184 110.3721 0001600  96.8703 263.2471 15.08837730 94468,6917.887,95.438,540.859,538.645,0.0
52263.0,STARLINK-3786,PAYLOAD,2023-12-28 13:09:36,15.08838495,0.0001571,53.2181,110.0741,94.4593,265.6579,0.00010698,1.415e-05,0.0,0 STARLINK-3786,1 52263U 22041C   23362.54834093  .00001415  00000-0  10698-3 0  9997,2 52263  53.2181 110.0741 0001571  94.4593 265.6579 15.08838495 93263,6917.885,95.438,540.837,538.663,0.0
52263.0,STARLINK-3786,PAYLOAD,2023-12-29 14:35:46,15.08844006,0.0001394,53.2166,105.3156,90.1537,269.9614,1.8051e-05,-1e-08,0.0,0 STARLINK-3786,1 52263U 22041C   23363.60818032 -.00000001  00000-0  18051-4 0  9993,2 52263  53.2166 105.3156 0001394  90.1537 269.9614 15.08844006 93427,6917.868,95.437,540.697,538.769,0.0
52263.0,STARLINK-3786,PAYLOAD,2023-12-30 12:51:10,15.08847352,0.0001325,53.2167,101.1537,81.9222,278.192,8.4778e-05,1.062e-05,0.0,0 STARLINK-3786,1 52263U 22041C   23364.53553656  .00001062  00000-0  84778-4 0  9990,2 52263  53.2167 101.1537 0001325  81.9222 278.1920 15.08847352 93562,6917.858,95.437,540.64,538.806,0.0
52263.0,STARLINK-3786,PAYLOAD,2023-12-31 11:06:35,15.08835741,0.0001639,53.2169,96.9931,57.2428,302.8722,6.2649e-05,7.09e-06,0.0,0 STARLINK-3786,1 52263U 22041C   23365.46290568  .00000709  00000-0  62649-4 0  9993,2 52263  53.2169  96.9931 0001639  57.2428 302.8722 15.08835741 94919,6917.893,95.438,540.892,538.625,0.0
52263.0,STARLINK-3786,PAYLOAD,2023-12-31 15:52:44,15.08839172,0.000131,53.2169,96.0994,80.1471,279.9669,7.0138e-05,8.29e-06,0.0,0 STARLINK-3786,1 52263U 22041C   23365.66162156  .00000829  00000-0  70138-4 0  9991,2 52263  53.2169  96.0994 0001310  80.1471 279.9669 15.08839172 93733,6917.883,95.438,540.654,538.842,0.0
52263.0,STARLINK-3786,PAYLOAD,2024-01-01 10:57:21,15.08841241,0.0001375,53.2172,92.5288,92.444,267.6709,-4.8529e-05,-1.06e-05,0.0,0 STARLINK-3786,1 52263U 22041C   24001.45650452 -.00001060  00000-0 -48529-4 0  9996,2 52263  53.2172  92.5288 0001375  92.4440 267.6709 15.08841241 93859,6917.877,95.437,540.693,538.79,0.0
52263.0,STARLINK-3786,PAYLOAD,2024-01-02 12:23:31,15.08845085,0.0001343,53.2175,87.771,92.1683,267.9463,0.00011194,1.494e-05,0.0,0 STARLINK-3786,1 52263U 22041C   24002.51633666  .00001494  00000-0  11194-3 0  9998,2 52263  53.2175  87.7710 0001343  92.1683 267.9463 15.08845085 95222,6917.865,95.437,540.659,538.801,0.0
52263.0,STARLINK-3786,PAYLOAD,2024-01-03 09:03:33,15.08834646,0.000142,53.2173,83.9047,109.3293,250.7853,-1.8205e-05,-5.78e-06,0.0,0 STARLINK-3786,1 52263U 22041C   24003.37746864 -.00000578  00000-0 -18205-4 0  9993,2 52263  53.2173  83.9047 0001420 109.3293 250.7853 15.08834646 95353,6917.897,95.438,540.744,538.779,0.0
